LAOSAT 1                
1 41034U 15067A   26182.89512932 -.00000333  00000+0  00000+0 0  9997
2 41034   0.0424 201.8074 0002392 214.7351 314.1272  1.00268815 39008
TELSTAR 12V             
1 41036U 15068A   26182.86670546 -.00000108  00000+0  00000+0 0  9993
2 41036   0.0181  29.2817 0002535  67.1086 120.5480  1.00271592 38770
ELEKTRO-L 2             
1 41105U 15074A   26182.93811038 -.00000111  00000+0  00000+0 0  9992
2 41105   6.7296  70.3426 0000516 273.6365 259.1662  1.00271077 38657
COSMOS 2513             
1 41121U 15075A   26182.17274899 -.00000127  00000+0  00000+0 0  9992
2 41121   0.0693 102.1065 0003337 336.0950 343.4555  1.00269937 38687
EXPRESS-AMU1            
1 41191U 15082A   26181.52237722  .00000166  00000+0  00000+0 0  9991
2 41191   0.0216  68.7845 0003010  32.7700  41.1823  1.00273994 38407
GAOFEN-4                
1 41194U 15083A   26182.60549609 -.00000324  00000+0  00000+0 0  9992
2 41194   0.3936  83.8387 0004243 111.7154  47.7566  1.00268667 38677
BELINTERSAT-1           
1 41238U 16001A   26182.87991663  .00000117  00000+0  00000+0 0  9991
2 41238   0.0055 105.3810 0001724 325.6469 217.1607  1.00272752 38389
IRNSS-1E                
1 41241U 16003A   26180.82733131 -.00000310  00000+0  00000+0 0  9990
2 41241  33.2608  59.5670 0019200 178.7998  89.1855  1.00272765 38208
EUTELSAT 9B             
1 41310U 16005A   26182.87197624  .00000072  00000+0  00000+0 0  9991
2 41310   0.0561  68.7538 0001611   7.0881 166.9748  1.00271563 38268
SES-9                   
1 41380U 16013A   26182.89114264 -.00000334  00000+0  00000+0 0  9990
2 41380   0.0195 320.8575 0002379 125.1009 263.0883  1.00266550 37580
EUTELSAT 65 WEST A      
1 41382U 16014A   26182.92804946 -.00000266  00000+0  00000+0 0  9994
2 41382   0.0844 302.5716 0002754 159.0708  87.2209  1.00269981 37675
IRNSS-1F                
1 41384U 16015A   26182.80479730  .00000165  00000+0  00000+0 0  9990
2 41384   5.3848  96.4495 0017432 184.0274 321.5375  1.00274888 37813
BEIDOU-2 IGSO-6         
1 41434U 16021A   26177.11016981 -.00000145  00000+0  00000+0 0  9995
2 41434  60.2385  37.9495 0057558 231.0163 137.2672  1.00258926 37578
IRNSS-1G                
1 41469U 16027A   26182.83478140 -.00000327  00000+0  00000+0 0  9995
2 41469   5.2308  97.1365 0005800   6.3049 246.4676  1.00280117 37320
JCSAT-2B                
1 41471U 16028A   26182.90015601 -.00000155  00000+0  00000+0 0  9995
2 41471   0.0178  17.9470 0001244  84.8434 295.2255  1.00271898 37270
THAICOM 8               
1 41552U 16031A   26182.87887400 -.00000111  00000+0  00000+0 0  9991
2 41552   0.0521  27.2650 0003703  41.4138 246.1376  1.00272403 36864
INTELSAT 31 (IS-31)     
1 41581U 16035A   26182.55806885 -.00000140  00000+0  00000+0 0  9992
2 41581   0.0162 287.8314 0000652 350.1203 107.5034  1.00270123 36825
BEIDOU-2 G7             
1 41586U 16037A   26182.96288514 -.00000344  00000+0  00000+0 0  9993
2 41586   1.7551  69.4310 0006781   3.4600 304.3017  1.00269882  7037
ABS-2A (MONGOLSAT-1)    
1 41588U 16038A   26182.96553049  .00000000  00000+0  00000+0 0  9992
2 41588   0.0251  19.2662 0001688  28.0241 295.0633  1.00266751 36850
EUTELSAT 117 WEST B     
1 41589U 16038B   26182.47753068 -.00000001  00000+0  00000+0 0  9994
2 41589   0.0045 199.2910 0000120  75.4259  59.7184  1.00272874 36806
BRISAT                  
1 41591U 16039A   26182.84183353  .00000000  00000+0  00000+0 0  9991
2 41591   0.0207 358.4570 0002032  91.5933 283.3925  1.00265137 36758
ECHOSTAR 18             
1 41592U 16039B   26182.96342215  .00000000  00000+0  00000+0 0  9999
2 41592   0.0251  35.6434 0001673  67.9150 101.9228  1.00268492 36779
MUOS-5                  
1 41622U 16041A   26182.91981609 -.00000113  00000+0  00000+0 0  9993
2 41622   2.1732 301.9249 0198409 260.5765 303.4307  1.00272725 37233
TIANTONG-1 1            
1 41725U 16048A   26182.53339953 -.00000308  00000+0  00000+0 0  9997
2 41725   3.8753  43.5257 0005876  53.2053 116.2711  1.00268913 36410
JCSAT-16                
1 41729U 16050A   26182.54180623 -.00000240  00000+0  00000+0 0  9998
2 41729   0.0185  22.4108 0001335  92.0435 144.1456  1.00271932 36213
USA 270                 
1 41744U 16052A   26176.62624484 -.00000284  00000+0  00000+0 0  9995
2 41744   4.2178  77.0981 0000668 157.1810  56.2495  0.99500516 28218
USA 271                 
1 41745U 16052B   26176.75914149 -.00000236  00000+0  00000+0 0  9997
2 41745   4.1909  77.1447 0001955 290.7679 281.9940  0.99833204 28007
INTELSAT 36 (IS-36)     
1 41747U 16053A   26182.95441804 -.00000014  00000+0  00000+0 0  9996
2 41747   0.0108  20.8787 0002042 327.2442 343.9666  1.00270637 36101
INSAT-3DR               
1 41752U 16054A   26182.74174926 -.00000067  00000+0  00000+0 0  9996
2 41752   0.1407  85.9571 0010084 186.3350 348.5098  1.00272346 35962
GSAT-18                 
1 41793U 16060A   26182.10015766 -.00000066  00000+0  00000+0 0  9993
2 41793   0.0473  93.2619 0005908 344.2940 311.6366  1.00272125 35664
SKY MUSTER 2 (NBN1B)    
1 41794U 16060B   26182.89833601 -.00000234  00000+0  00000+0 0  9993
2 41794   0.0181 345.4158 0001769 114.6816 288.0404  1.00269750 35663
HIMAWARI-9              
1 41836U 16064A   26182.89755600 -.00000264  00000+0  00000+0 0  9999
2 41836   0.0330 265.6561 0001435 218.8498 259.3030  1.00272755 35351
