OBJECT_NAME,OBJECT_ID,EPOCH,MEAN_MOTION,ECCENTRICITY,INCLINATION,RA_OF_ASC_NODE,ARG_OF_PERICENTER,MEAN_ANOMALY,EPHEMERIS_TYPE,CLASSIFICATION_TYPE,NORAD_CAT_ID,ELEMENT_SET_NO,REV_AT_EPOCH,BSTAR,MEAN_MOTION_DOT,MEAN_MOTION_DDOT
LAOSAT 1,2015-067A,2026-07-01T21:28:59.173248,1.00268815,.00023929,0.0424,201.8074,214.7351,314.1272,0,U,41034,999,3900,0,-.333E-5,0
TELSTAR 12V,2015-068A,2026-07-01T20:48:03.351744,1.00271592,.0002535,0.0181,29.2817,67.1086,120.5480,0,U,41036,999,3877,0,-.108E-5,0
ELEKTRO-L 2,2015-074A,2026-07-01T22:30:52.736832,1.00271077,.00005169,6.7296,70.3426,273.6365,259.1662,0,U,41105,999,3865,0,-.111E-5,0
COSMOS 2513,2015-075A,2026-07-01T04:08:45.512736,1.00269937,.00033373,0.0693,102.1065,336.0950,343.4555,0,U,41121,999,3868,0,-.127E-5,0
EXPRESS-AMU1,2015-082A,2026-06-30T12:32:13.391808,1.00273994,.00030105,0.0216,68.7845,32.7700,41.1823,0,U,41191,999,3840,0,.166E-5,0
GAOFEN-4,2015-083A,2026-07-01T14:31:54.862176,1.00268667,.00042432,0.3936,83.8387,111.7154,47.7566,0,U,41194,999,3867,0,-.324E-5,0
BELINTERSAT-1,2016-001A,2026-07-01T21:07:04.796832,1.00272752,.00017241,0.0055,105.3810,325.6469,217.1607,0,U,41238,999,3838,0,.117E-5,0
IRNSS-1E,2016-003A,2026-06-29T19:51:21.425184,1.00272765,.00192006,33.2608,59.5670,178.7998,89.1855,0,U,41241,999,3820,0,-.31E-5,0
EUTELSAT 9B,2016-005A,2026-07-01T20:55:38.747136,1.00271563,.00016119,0.0561,68.7538,7.0881,166.9748,0,U,41310,999,3826,0,.72E-6,0
SES-9,2016-013A,2026-07-01T21:23:14.724096,1.00266550,.00023793,0.0195,320.8575,125.1009,263.0883,0,U,41380,999,3758,0,-.334E-5,0
EUTELSAT 65 WEST A,2016-014A,2026-07-01T22:16:23.473344,1.00269981,.00027545,0.0844,302.5716,159.0708,87.2209,0,U,41382,999,3767,0,-.266E-5,0
IRNSS-1F,2016-015A,2026-07-01T19:18:54.486720,1.00274888,.00174327,5.3848,96.4495,184.0274,321.5375,0,U,41384,999,3781,0,.165E-5,0
BEIDOU-2 IGSO-6,2016-021A,2026-06-26T02:38:38.671584,1.00258926,.0057558,60.2385,37.9495,231.0163,137.2672,0,U,41434,999,3757,0,-.145E-5,0
IRNSS-1G,2016-027A,2026-07-01T20:02:05.112960,1.00280117,.00058007,5.2308,97.1365,6.3049,246.4676,0,U,41469,999,3732,0,-.327E-5,0
JCSAT-2B,2016-028A,2026-07-01T21:36:13.479264,1.00271898,.00012447,0.0178,17.9470,84.8434,295.2255,0,U,41471,999,3727,0,-.155E-5,0
THAICOM 8,2016-031A,2026-07-01T21:05:34.713600,1.00272403,.00037031,0.0521,27.2650,41.4138,246.1376,0,U,41552,999,3686,0,-.111E-5,0
INTELSAT 31 (IS-31),2016-035A,2026-07-01T13:23:37.148640,1.00270123,.00006522,0.0162,287.8314,350.1203,107.5034,0,U,41581,999,3682,0,-.14E-5,0
BEIDOU-2 G7,2016-037A,2026-07-01T23:06:33.276096,1.00269882,.00067812,1.7551,69.4310,3.4600,304.3017,0,U,41586,999,703,0,-.344E-5,0
ABS-2A (MONGOLSAT-1),2016-038A,2026-07-01T23:10:21.834336,1.00266751,.00016883,0.0251,19.2662,28.0241,295.0633,0,U,41588,999,3685,0,0,0
EUTELSAT 117 WEST B,2016-038B,2026-07-01T11:27:38.650752,1.00272874,.00001207,0.0045,199.2910,75.4259,59.7184,0,U,41589,999,3680,0,-.1E-7,0
BRISAT,2016-039A,2026-07-01T20:12:14.416992,1.00265137,.00020325,0.0207,358.4570,91.5933,283.3925,0,U,41591,999,3675,0,0,0
ECHOSTAR 18,2016-039B,2026-07-01T23:07:19.673760,1.00268492,.00016737,0.0251,35.6434,67.9150,101.9228,0,U,41592,999,3677,0,0,0
MUOS-5,2016-041A,2026-07-01T22:04:32.110176,1.00272725,.01984097,2.1732,301.9249,260.5765,303.4307,0,U,41622,999,3723,0,-.113E-5,0
TIANTONG-1 1,2016-048A,2026-07-01T12:48:05.719392,1.00268913,.00058764,3.8753,43.5257,53.2053,116.2711,0,U,41725,999,3641,0,-.308E-5,0
JCSAT-16,2016-050A,2026-07-01T13:00:12.058272,1.00271932,.00013352,0.0185,22.4108,92.0435,144.1456,0,U,41729,999,3621,0,-.24E-5,0
USA 270,2016-052A,2026-06-25T15:01:47.554176,0.99500516,.0000668,4.2178,77.0981,157.1810,56.2495,0,U,41744,999,2821,0,-.284E-5,0
USA 271,2016-052B,2026-06-25T18:13:09.824736,0.99833204,.0001955,4.1909,77.1447,290.7679,281.9940,0,U,41745,999,2800,0,-.236E-5,0
INTELSAT 36 (IS-36),2016-053A,2026-07-01T22:54:21.718656,1.00270637,.00020423,0.0108,20.8787,327.2442,343.9666,0,U,41747,999,3610,0,-.14E-6,0
INSAT-3DR,2016-054A,2026-07-01T17:48:07.136064,1.00272346,.00100843,0.1407,85.9571,186.3350,348.5098,0,U,41752,999,3596,0,-.67E-6,0
GSAT-18,2016-060A,2026-07-01T02:24:13.621824,1.00272125,.00059086,0.0473,93.2619,344.2940,311.6366,0,U,41793,999,3566,0,-.66E-6,0
SKY MUSTER 2 (NBN1B),2016-060B,2026-07-01T21:33:36.231264,1.00269750,.00017692,0.0181,345.4158,114.6816,288.0404,0,U,41794,999,3566,0,-.234E-5,0
HIMAWARI-9,2016-064A,2026-07-01T21:32:28.838400,1.00272755,.00014354,0.0330,265.6561,218.8498,259.3030,0,U,41836,999,3535,0,-.264E-5,0
